[
  {
    "COMMENT": "GENERATED VIA SPACETRACK.ORG API",
    "ORIGINATOR": "18 SPCS",
    "NORAD_CAT_ID": "43437",
    "OBJECT_NAME": "SENTINEL 3B",
    "OBJECT_TYPE": "PAYLOAD",
    "CLASSIFICATION_TYPE": "U",
    "INTLDES": "18039A",
    "EPOCH": "2023-06-02 04:36:17",
    "EPOCH_MICROSECONDS": "496288",
    "MEAN_MOTION": "14.2673854",
    "ECCENTRICITY": "0.0000912",
    "INCLINATION": "98.6279",
    "RA_OF_ASC_NODE": "220.5116",
    "ARG_OF_PERICENTER": "97.3679",
    "MEAN_ANOMALY": "262.7605",
    "EPHEMERIS_TYPE": "0",
    "ELEMENT_SET_NO": "999",
    "REV_AT_EPOCH": "26570",
    "BSTAR": "0.000080548",
    "MEAN_MOTION_DOT": "0.00000151",
    "MEAN_MOTION_DDOT": "0",
    "FILE": "3923342",
    "TLE_LINE0": "0 SENTINEL 3B",
    "TLE_LINE1": "1 43437U 18039A   23153.19186917  .00000151  00000-0  80548-4 0  9994",
    "TLE_LINE2": "2 43437  98.6279 220.5116 0000912  97.3679 262.7605 14.26738540265702",
    "OBJECT_ID": "2018-039A",
    "OBJECT_NUMBER": "43437",
    "SEMIMAJOR_AXIS": "7180.790",
    "PERIOD": "100.929",
    "APOGEE": "803.310",
    "PERIGEE": "802.000",
    "DECAYED": "0"
  },
  {
    "COMMENT": "GENERATED VIA SPACETRACK.ORG API",
    "ORIGINATOR": "18 SPCS",
    "NORAD_CAT_ID": "43437",
    "OBJECT_NAME": "SENTINEL 3B",
    "OBJECT_TYPE": "PAYLOAD",
    "CLASSIFICATION_TYPE": "U",
    "INTLDES": "18039A",
    "EPOCH": "2023-06-02 19:45:10",
    "EPOCH_MICROSECONDS": "416672",
    "MEAN_MOTION": "14.26738832",
    "ECCENTRICITY": "0.0000915",
    "INCLINATION": "98.6279",
    "RA_OF_ASC_NODE": "221.134",
    "ARG_OF_PERICENTER": "97.6766",
    "MEAN_ANOMALY": "262.4519",
    "EPHEMERIS_TYPE": "0",
    "ELEMENT_SET_NO": "999",
    "REV_AT_EPOCH": "26579",
    "BSTAR": "0.000085867",
    "MEAN_MOTION_DOT": "0.00000164",
    "MEAN_MOTION_DDOT": "0",
    "FILE": "3923570",
    "TLE_LINE0": "0 SENTINEL 3B",
    "TLE_LINE1": "1 43437U 18039A   23153.82303723  .00000164  00000-0  85867-4 0  9993",
    "TLE_LINE2": "2 43437  98.6279 221.1340 0000915  97.6766 262.4519 14.26738832265795",
    "OBJECT_ID": "2018-039A",
    "OBJECT_NUMBER": "43437",
    "SEMIMAJOR_AXIS": "7180.789",
    "PERIOD": "100.929",
    "APOGEE": "803.311",
    "PERIGEE": "801.997",
    "DECAYED": "0"
  },
  {
    "COMMENT": "GENERATED VIA SPACETRACK.ORG API",
    "ORIGINATOR": "18 SPCS",
    "NORAD_CAT_ID": "43437",
    "OBJECT_NAME": "SENTINEL 3B",
    "OBJECT_TYPE": "PAYLOAD",
    "CLASSIFICATION_TYPE": "U",
    "INTLDES": "18039A",
    "EPOCH": "2023-06-03 04:10:06",
    "EPOCH_MICROSECONDS": "479040",
    "MEAN_MOTION": "14.26738997",
    "ECCENTRICITY": "0.0000912",
    "INCLINATION": "98.6279",
    "RA_OF_ASC_NODE": "221.4797",
    "ARG_OF_PERICENTER": "97.9174",
    "MEAN_ANOMALY": "262.211",
    "EPHEMERIS_TYPE": "0",
    "ELEMENT_SET_NO": "999",
    "REV_AT_EPOCH": "26584",
    "BSTAR": "0.000087815",
    "MEAN_MOTION_DOT": "0.00000169",
    "MEAN_MOTION_DDOT": "0",
    "FILE": "3923809",
    "TLE_LINE0": "0 SENTINEL 3B",
    "TLE_LINE1": "1 43437U 18039A   23154.17368610  .00000169  00000-0  87815-4 0  9998",
    "TLE_LINE2": "2 43437  98.6279 221.4797 0000912  97.9174 262.2110 14.26738997265840",
    "OBJECT_ID": "2018-039A",
    "OBJECT_NUMBER": "43437",
    "SEMIMAJOR_AXIS": "7180.789",
    "PERIOD": "100.929",
    "APOGEE": "803.309",
    "PERIGEE": "801.999",
    "DECAYED": "0"
  },
  {
    "COMMENT": "GENERATED VIA SPACETRACK.ORG API",
    "ORIGINATOR": "18 SPCS",
    "NORAD_CAT_ID": "43437",
    "OBJECT_NAME": "SENTINEL 3B",
    "OBJECT_TYPE": "PAYLOAD",
    "CLASSIFICATION_TYPE": "U",
    "INTLDES": "18039A",
    "EPOCH": "2023-06-03 14:16:01",
    "EPOCH_MICROSECONDS": "750944",
    "MEAN_MOTION": "14.26739074",
    "ECCENTRICITY": "0.0000916",
    "INCLINATION": "98.6279",
    "RA_OF_ASC_NODE": "221.8947",
    "ARG_OF_PERICENTER": "98.515",
    "MEAN_ANOMALY": "261.6134",
    "EPHEMERIS_TYPE": "0",
    "ELEMENT_SET_NO": "999",
    "REV_AT_EPOCH": "26590",
    "BSTAR": "0.000080723",
    "MEAN_MOTION_DOT": "0.00000152",
    "MEAN_MOTION_DDOT": "0",
    "FILE": "3924076",
    "TLE_LINE0": "0 SENTINEL 3B",
    "TLE_LINE1": "1 43437U 18039A   23154.59446471  .00000152  00000-0  80723-4 0  9999",
    "TLE_LINE2": "2 43437  98.6279 221.8947 0000916  98.5150 261.6134 14.26739074265909",
    "OBJECT_ID": "2018-039A",
    "OBJECT_NUMBER": "43437",
    "SEMIMAJOR_AXIS": "7180.789",
    "PERIOD": "100.929",
    "APOGEE": "803.311",
    "PERIGEE": "801.996",
    "DECAYED": "0"
  },
  {
    "COMMENT": "GENERATED VIA SPACETRACK.ORG API",
    "ORIGINATOR": "18 SPCS",
    "NORAD_CAT_ID": "43437",
    "OBJECT_NAME": "SENTINEL 3B",
    "OBJECT_TYPE": "PAYLOAD",
    "CLASSIFICATION_TYPE": "U",
    "INTLDES": "18039A",
    "EPOCH": "2023-06-03 19:18:59",
    "EPOCH_MICROSECONDS": "382144",
    "MEAN_MOTION": "14.26739167",
    "ECCENTRICITY": "0.0000916",
    "INCLINATION": "98.6279",
    "RA_OF_ASC_NODE": "222.1021",
    "ARG_OF_PERICENTER": "98.6112",
    "MEAN_ANOMALY": "261.5172",
    "EPHEMERIS_TYPE": "0",
    "ELEMENT_SET_NO": "999",
    "REV_AT_EPOCH": "26593",
    "BSTAR": "0.000081412",
    "MEAN_MOTION_DOT": "0.00000153",
    "MEAN_MOTION_DDOT": "0",
    "FILE": "3924324",
    "TLE_LINE0": "0 SENTINEL 3B",
    "TLE_LINE1": "1 43437U 18039A   23154.80485396  .00000153  00000-0  81412-4 0  9999",
    "TLE_LINE2": "2 43437  98.6279 222.1021 0000916  98.6112 261.5172 14.26739167265932",
    "OBJECT_ID": "2018-039A",
    "OBJECT_NUMBER": "43437",
    "SEMIMAJOR_AXIS": "7180.788",
    "PERIOD": "100.929",
    "APOGEE": "803.311",
    "PERIGEE": "801.995",
    "DECAYED": "0"
  },
  {
    "COMMENT": "GENERATED VIA SPACETRACK.ORG API",
    "ORIGINATOR": "18 SPCS",
    "NORAD_CAT_ID": "43437",
    "OBJECT_NAME": "SENTINEL 3B",
    "OBJECT_TYPE": "PAYLOAD",
    "CLASSIFICATION_TYPE": "U",
    "INTLDES": "18039A",
    "EPOCH": "2023-06-04 03:43:55",
    "EPOCH_MICROSECONDS": "430688",
    "MEAN_MOTION": "14.26739322",
    "ECCENTRICITY": "0.0000908",
    "INCLINATION": "98.6279",
    "RA_OF_ASC_NODE": "222.448",
    "ARG_OF_PERICENTER": "100.0174",
    "MEAN_ANOMALY": "260.1108",
    "EPHEMERIS_TYPE": "0",
    "ELEMENT_SET_NO": "999",
    "REV_AT_EPOCH": "26598",
    "BSTAR": "0.000081919",
    "MEAN_MOTION_DOT": "0.00000155",
    "MEAN_MOTION_DDOT": "0",
    "FILE": "3924842",
    "TLE_LINE0": "0 SENTINEL 3B",
    "TLE_LINE1": "1 43437U 18039A   23155.15550267  .00000155  00000-0  81919-4 0  9992",
    "TLE_LINE2": "2 43437  98.6279 222.4480 0000908 100.0174 260.1108 14.26739322265983",
    "OBJECT_ID": "2018-039A",
    "OBJECT_NUMBER": "43437",
    "SEMIMAJOR_AXIS": "7180.788",
    "PERIOD": "100.929",
    "APOGEE": "803.305",
    "PERIGEE": "802.001",
    "DECAYED": "0"
  },
  {
    "COMMENT": "GENERATED VIA SPACETRACK.ORG API",
    "ORIGINATOR": "18 SPCS",
    "NORAD_CAT_ID": "43437",
    "OBJECT_NAME": "SENTINEL 3B",
    "OBJECT_TYPE": "PAYLOAD",
    "CLASSIFICATION_TYPE": "U",
    "INTLDES": "18039A",
    "EPOCH": "2023-06-04 18:52:48",
    "EPOCH_MICROSECONDS": "318240",
    "MEAN_MOTION": "14.26739533",
    "ECCENTRICITY": "0.0000912",
    "INCLINATION": "98.6279",
    "RA_OF_ASC_NODE": "223.0703",
    "ARG_OF_PERICENTER": "100.6009",
    "MEAN_ANOMALY": "259.5274",
    "EPHEMERIS_TYPE": "0",
    "ELEMENT_SET_NO": "999",
    "REV_AT_EPOCH": "26607",
    "BSTAR": "0.000078337",
    "MEAN_MOTION_DOT": "0.00000146",
    "MEAN_MOTION_DDOT": "0",
    "FILE": "3924896",
    "TLE_LINE0": "0 SENTINEL 3B",
    "TLE_LINE1": "1 43437U 18039A   23155.78667035  .00000146  00000-0  78337-4 0  9993",
    "TLE_LINE2": "2 43437  98.6279 223.0703 0000912 100.6009 259.5274 14.26739533266077",
    "OBJECT_ID": "2018-039A",
    "OBJECT_NUMBER": "43437",
    "SEMIMAJOR_AXIS": "7180.787",
    "PERIOD": "100.929",
    "APOGEE": "803.307",
    "PERIGEE": "801.997",
    "DECAYED": "0"
  },
  {
    "COMMENT": "GENERATED VIA SPACETRACK.ORG API",
    "ORIGINATOR": "18 SPCS",
    "NORAD_CAT_ID": "43437",
    "OBJECT_NAME": "SENTINEL 3B",
    "OBJECT_TYPE": "PAYLOAD",
    "CLASSIFICATION_TYPE": "U",
    "INTLDES": "18039A",
    "EPOCH": "2023-06-04 18:52:48",
    "EPOCH_MICROSECONDS": "318240",
    "MEAN_MOTION": "14.26739533",
    "ECCENTRICITY": "0.0000912",
    "INCLINATION": "98.6279",
    "RA_OF_ASC_NODE": "223.0703",
    "ARG_OF_PERICENTER": "100.6009",
    "MEAN_ANOMALY": "259.5274",
    "EPHEMERIS_TYPE": "0",
    "ELEMENT_SET_NO": "999",
    "REV_AT_EPOCH": "26607",
    "BSTAR": "0.000078337",
    "MEAN_MOTION_DOT": "0.00000146",
    "MEAN_MOTION_DDOT": "0",
    "FILE": "3925173",
    "TLE_LINE0": "0 SENTINEL 3B",
    "TLE_LINE1": "1 43437U 18039A   23155.78667035  .00000146  00000-0  78337-4 0  9993",
    "TLE_LINE2": "2 43437  98.6279 223.0703 0000912 100.6009 259.5274 14.26739533266077",
    "OBJECT_ID": "2018-039A",
    "OBJECT_NUMBER": "43437",
    "SEMIMAJOR_AXIS": "7180.787",
    "PERIOD": "100.929",
    "APOGEE": "803.307",
    "PERIGEE": "801.997",
    "DECAYED": "0"
  }
]